{
  "type": "FeatureCollection",
  "features": [
    {
      "type": "Feature",
      "properties": {
        "norad_id": 31307,
        "name": "GALAXY 17 (G-17)",
        "group": "intelsat",
        "lat": 1.540661033905957,
        "lon": -136.02083049909172,
        "alt_km": 35765.6107430671,
        "timestamp": "2025-12-20T14:38:01.626121+00:00",
        "meta_object_name": "GALAXY 17 (G-17)",
        "meta_object_id": "2007-016B",
        "meta_epoch": "2025-12-20T00:50:37.874976",
        "meta_mean_motion": 1.00272416,
        "meta_eccentricity": 0.00054284,
        "meta_inclination": 2.5175,
        "meta_ra_of_asc_node": 82.2053,
        "meta_arg_of_pericenter": 170.456,
        "meta_mean_anomaly": 123.9095,
        "meta_ephemeris_type": 0,
        "meta_classification_type": "U",
        "meta_norad_cat_id": 31307,
        "meta_element_set_no": 999,
        "meta_rev_at_epoch": 6800,
        "meta_bstar": 0,
        "meta_mean_motion_dot": -1.84e-06,
        "meta_mean_motion_ddot": 0,
        "tle_line1": "1 31307U 07016B   25354.03516059 -.00000184  00000+0  00000+0 0  9998",
        "tle_line2": "2 31307   2.5175  82.2053 0005428 170.4560 123.9095  1.00272416 68004"
      },
      "geometry": {
        "type": "Point",
        "coordinates": [
          -136.02083049909172,
          1.540661033905957
        ]
      }
    },
    {
      "type": "Feature",
      "properties": {
        "norad_id": 31862,
        "name": "DIRECTV 10",
        "group": "intelsat",
        "lat": -0.000685888618155242,
        "lon": -153.85313832057236,
        "alt_km": 35785.23257347829,
        "timestamp": "2025-12-20T14:38:01.626133+00:00",
        "meta_object_name": "DIRECTV 10",
        "meta_object_id": "2007-032A",
        "meta_epoch": "2025-12-19T22:03:56.325888",
        "meta_mean_motion": 1.00274879,
        "meta_eccentricity": 2.875e-05,
        "meta_inclination": 0.0068,
        "meta_ra_of_asc_node": 101.121,
        "meta_arg_of_pericenter": 14.8221,
        "meta_mean_anomaly": 200.9996,
        "meta_ephemeris_type": 0,
        "meta_classification_type": "U",
        "meta_norad_cat_id": 31862,
        "meta_element_set_no": 999,
        "meta_rev_at_epoch": 4379,
        "meta_bstar": 0,
        "meta_mean_motion_dot": -7.9e-07,
        "meta_mean_motion_ddot": 0,
        "tle_line1": "1 31862U 07032A   25353.91940192 -.00000079  00000+0  00000+0 0  9990",
        "tle_line2": "2 31862   0.0068 101.1210 0000287  14.8221 200.9996  1.00274879 43793"
      },
      "geometry": {
        "type": "Point",
        "coordinates": [
          -153.85313832057236,
          -0.000685888618155242
        ]
      }
    },
    {
      "type": "Feature",
      "properties": {
        "norad_id": 32253,
        "name": "INTELSAT 11 (IS-11)",
        "group": "intelsat",
        "lat": 2.676266290035839,
        "lon": 139.88559498785048,
        "alt_km": 36143.540532270585,
        "timestamp": "2025-12-20T14:38:01.626144+00:00",
        "meta_object_name": "INTELSAT 11 (IS-11)",
        "meta_object_id": "2007-044B",
        "meta_epoch": "2025-12-20T03:52:39.856224",
        "meta_mean_motion": 0.99052164,
        "meta_eccentricity": 0.00085362,
        "meta_inclination": 3.0984,
        "meta_ra_of_asc_node": 80.8952,
        "meta_arg_of_pericenter": 168.8348,
        "meta_mean_anomaly": 90.4755,
        "meta_ephemeris_type": 0,
        "meta_classification_type": "U",
        "meta_norad_cat_id": 32253,
        "meta_element_set_no": 999,
        "meta_rev_at_epoch": 6667,
        "meta_bstar": 0,
        "meta_mean_motion_dot": -5.2e-07,
        "meta_mean_motion_ddot": 0,
        "tle_line1": "1 32253U 07044B   25354.16157241 -.00000052  00000+0  00000+0 0  9992",
        "tle_line2": "2 32253   3.0984  80.8952 0008536 168.8348  90.4755  0.99052164 66674"
      },
      "geometry": {
        "type": "Point",
        "coordinates": [
          139.88559498785048,
          2.676266290035839
        ]
      }
    },
    {
      "type": "Feature",
      "properties": {
        "norad_id": 32388,
        "name": "HORIZONS-2",
        "group": "intelsat",
        "lat": 0.9744516250685611,
        "lon": -124.8587458763795,
        "alt_km": 35771.391976624276,
        "timestamp": "2025-12-20T14:38:01.626156+00:00",
        "meta_object_name": "HORIZONS-2",
        "meta_object_id": "2007-063B",
        "meta_epoch": "2025-12-20T02:31:38.593920",
        "meta_mean_motion": 1.00271871,
        "meta_eccentricity": 0.00045794,
        "meta_inclination": 2.1396,
        "meta_ra_of_asc_node": 82.8824,
        "meta_arg_of_pericenter": 193.592,
        "meta_mean_anomaly": 136.5976,
        "meta_ephemeris_type": 0,
        "meta_classification_type": "U",
        "meta_norad_cat_id": 32388,
        "meta_element_set_no": 999,
        "meta_rev_at_epoch": 6601,
        "meta_bstar": 0,
        "meta_mean_motion_dot": -2.31e-06,
        "meta_mean_motion_ddot": 0,
        "tle_line1": "1 32388U 07063B   25354.10530780 -.00000231  00000+0  00000+0 0  9998",
        "tle_line2": "2 32388   2.1396  82.8824 0004579 193.5920 136.5976  1.00271871 66010"
      },
      "geometry": {
        "type": "Point",
        "coordinates": [
          -124.8587458763795,
          0.9744516250685611
        ]
      }
    },
    {
      "type": "Feature",
      "properties": {
        "norad_id": 32729,
        "name": "DIRECTV 11",
        "group": "intelsat",
        "lat": -0.015075279457792485,
        "lon": -150.24111112905712,
        "alt_km": 35784.478220266436,
        "timestamp": "2025-12-20T14:38:01.626168+00:00",
        "meta_object_name": "DIRECTV 11",
        "meta_object_id": "2008-013A",
        "meta_epoch": "2025-12-19T16:13:00.599232",
        "meta_mean_motion": 1.00272169,
        "meta_eccentricity": 4.774e-05,
        "meta_inclination": 0.0442,
        "meta_ra_of_asc_node": 195.9689,
        "meta_arg_of_pericenter": 333.3014,
        "meta_mean_anomaly": 63.3182,
        "meta_ephemeris_type": 0,
        "meta_classification_type": "U",
        "meta_norad_cat_id": 32729,
        "meta_element_set_no": 999,
        "meta_rev_at_epoch": 4379,
        "meta_bstar": 0,
        "meta_mean_motion_dot": -1.01e-06,
        "meta_mean_motion_ddot": 0,
        "tle_line1": "1 32729U 08013A   25353.67570138 -.00000101  00000+0  00000+0 0  9991",
        "tle_line2": "2 32729   0.0442 195.9689 0000477 333.3014  63.3182  1.00272169 43791"
      },
      "geometry": {
        "type": "Point",
        "coordinates": [
          -150.24111112905712,
          -0.015075279457792485
        ]
      }
    },
    {
      "type": "Feature",
      "properties": {
        "norad_id": 32951,
        "name": "GALAXY 18 (G-18)",
        "group": "intelsat",
        "lat": 0.010362059391241771,
        "lon": -174.10406115778758,
        "alt_km": 35785.796070791934,
        "timestamp": "2025-12-20T14:38:01.626179+00:00",
        "meta_object_name": "GALAXY 18 (G-18)",
        "meta_object_id": "2008-024A",
        "meta_epoch": "2025-12-20T05:47:52.257120",
        "meta_mean_motion": 1.00271014,
        "meta_eccentricity": 0.00028238,
        "meta_inclination": 0.014,
        "meta_ra_of_asc_node": 53.4203,
        "meta_arg_of_pericenter": 220.2424,
        "meta_mean_anomaly": 139.3742,
        "meta_ephemeris_type": 0,
        "meta_classification_type": "U",
        "meta_norad_cat_id": 32951,
        "meta_element_set_no": 999,
        "meta_rev_at_epoch": 4405,
        "meta_bstar": 0,
        "meta_mean_motion_dot": 4.9e-07,
        "meta_mean_motion_ddot": 0,
        "tle_line1": "1 32951U 08024A   25354.24157705  .00000049  00000+0  00000+0 0  9995",
        "tle_line2": "2 32951   0.0140  53.4203 0002823 220.2424 139.3742  1.00271014 44053"
      },
      "geometry": {
        "type": "Point",
        "coordinates": [
          -174.10406115778758,
          0.010362059391241771
        ]
      }
    },
    {
      "type": "Feature",
      "properties": {
        "norad_id": 33153,
        "name": "INTELSAT 25 (IS-25)",
        "group": "intelsat",
        "lat": -0.6037756407045302,
        "lon": -82.57383644214868,
        "alt_km": 35766.480481544604,
        "timestamp": "2025-12-20T14:38:01.626191+00:00",
        "meta_object_name": "INTELSAT 25 (IS-25)",
        "meta_object_id": "2008-034A",
        "meta_epoch": "2025-12-20T03:15:38.761056",
        "meta_mean_motion": 1.00270174,
        "meta_eccentricity": 0.00048007,
        "meta_inclination": 2.2457,
        "meta_ra_of_asc_node": 82.5709,
        "meta_arg_of_pericenter": 187.3325,
        "meta_mean_anomaly": 196.4726,
        "meta_ephemeris_type": 0,
        "meta_classification_type": "U",
        "meta_norad_cat_id": 33153,
        "meta_element_set_no": 999,
        "meta_rev_at_epoch": 6390,
        "meta_bstar": 0,
        "meta_mean_motion_dot": -2.02e-06,
        "meta_mean_motion_ddot": 0,
        "tle_line1": "1 33153U 08034A   25354.13586529 -.00000202  00000+0  00000+0 0  9991",
        "tle_line2": "2 33153   2.2457  82.5709 0004800 187.3325 196.4726  1.00270174 63904"
      },
      "geometry": {
        "type": "Point",
        "coordinates": [
          -82.57383644214868,
          -0.6037756407045302
        ]
      }
    }
  ]
}